GLOBALSTAR M068         
1 32266U 07048D   25092.47379580 -.00000047  00000+0  31271-3 0  9997
2 32266  51.9876 173.0565 0000501 347.4509  25.5264 12.62818791807994
GLOBALSTAR M079         
1 37188U 10054A   25092.50189953 -.00000078  00000+0  14311-3 0  9993
2 37188  52.0069  10.1833 0000836  89.4591  84.9798 12.62272364666895
GLOBALSTAR M074         
1 37189U 10054B   25092.90250642 -.00000081  00000+0  12831-3 0  9991
2 37189  52.0050   8.2996 0000427  81.7390 352.5716 12.62267721667629
GLOBALSTAR M076         
1 37190U 10054C   25092.55372883 -.00000082  00000+0  11929-3 0  9994
2 37190  52.0060   9.5212 0000632 104.0450  67.5097 12.62260270667224
GLOBALSTAR M077         
1 37191U 10054D   25092.06065892 -.00000068  00000+0  20031-3 0  9998
2 37191  52.0092 327.8628 0000751  87.0862  60.6623 12.62272685667532
GLOBALSTAR M075         
1 37192U 10054E   25092.64616687 -.00000106  00000+0 -10055-4 0  9997
2 37192  51.9959  51.5381 0000390  75.9758  94.9133 12.62262757666836
GLOBALSTAR M073         
1 37193U 10054F   25092.86459319 -.00000075  00000+0  16325-3 0  9998
2 37193  52.0077 324.6422 0000786  95.5711 346.4729 12.62269810668370
GLOBALSTAR M083         
1 37739U 11033A   25092.80905834 -.00000055  00000+0  27494-3 0  9991
2 37739  51.9849 273.6433 0000921  93.1341  37.5815 12.62262088637695
GLOBALSTAR M088         
1 37740U 11033B   25092.53903578 -.00000074  00000+0  16698-3 0  9991
2 37740  51.9726 180.0183 0000558 112.3256 351.5323 12.62264855632848
GLOBALSTAR M091         
1 37741U 11033C   25092.45332368 -.00000089  00000+0  82309-4 0  9995
2 37741  51.9980 143.7006 0000565  91.7751 281.5764 12.62266698633624
GLOBALSTAR M085         
1 37742U 11033D   25092.47248694 -.00000114  00000+0 -58485-4 0  9994
2 37742  51.9852  94.7451 0000494  78.2413  82.3842 12.62266977634139
GLOBALSTAR M081         
1 37743U 11033E   25092.50017653 -.00000110  00000+0 -33255-4 0  9992
2 37743  51.9941  97.4011 0000506 101.7209  64.8297 12.62262391634281
GLOBALSTAR M089         
1 37744U 11033F   25092.82724464 -.00000097  00000+0  37936-4 0  9996
2 37744  51.9941  50.6457 0000257 102.5321 291.2664 12.62268065635429
GLOBALSTAR M084         
1 38040U 11080A   25092.52509424 -.00000087  00000+0  93922-4 0  9998
2 38040  52.0001 278.8180 0000629 118.9829 280.8131 12.62264449613119
GLOBALSTAR M080         
1 38041U 11080B   25092.49504231 -.00000087  00000+0  96326-4 0  9997
2 38041  52.0054 280.4909 0000803 132.8795 249.7414 12.62270944613235
GLOBALSTAR M082         
1 38042U 11080C   25092.60003250 -.00000092  00000+0  67163-4 0  9999
2 38042  52.0065 235.6056 0000875  79.6863   1.1438 12.62264730613957
GLOBALSTAR M092         
1 38043U 11080D   25092.35629363 -.00000075  00000+0  16193-3 0  9998
2 38043  52.0102 326.7215 0000684  84.8847  88.3867 12.62261862612378
GLOBALSTAR M090         
1 38044U 11080E   25092.79177486 -.00000088  00000+0  88023-4 0  9997
2 38044  51.9876 228.9277 0000814  99.0377  13.0429 12.62268676614132
GLOBALSTAR M086         
1 38045U 11080F   25092.63789156 -.00000075  00000+0  16310-3 0  9999
2 38045  51.9889 229.9416 0001529 135.0599 237.8192 12.62268835614022
GLOBALSTAR M097         
1 39072U 13005A   25092.50328925 -.00000080  00000+0  13428-3 0  9991
2 39072  52.0031 144.8224 0000614 112.5623 247.5308 12.62271522561258
GLOBALSTAR M093         
1 39073U 13005B   25092.39736890 -.00000094  00000+0  52083-4 0  9999
2 39073  51.9793 138.5665 0000565 110.8273 249.2654 12.62263361561196
GLOBALSTAR M094         
1 39074U 13005C   25092.79349516 -.00000110  00000+0 -32045-4 0  9995
2 39074  51.9966  51.6643 0000721  84.5527 275.5422 12.62269361562870
GLOBALSTAR M096         
1 39075U 13005D   25092.49002349 -.00000117  00000+0 -71546-4 0  9999
2 39075  52.0056 101.0461 0000594  85.1139 274.9795 12.62269932561739
GLOBALSTAR M078         
1 39076U 13005E   25092.54230534 -.00000123  00000+0 -10790-3 0  9995
2 39076  51.9869 185.4981 0000973  46.0753 314.0194 12.62259270560363
GLOBALSTAR M095         
1 39077U 13005F   25092.48982855 -.00000068  00000+0  20039-3 0  9993
2 39077  51.9793 182.8943 0000897  83.5674 276.5295 12.62268454560214
GLOBALSTAR M087         
1 52888U 22064A   25092.36211020 -.00000077  00000+0  15090-3 0  9990
2 52888  51.9811 324.6886 0000888  80.1242 279.9725 12.62270220135460
